ELYSIUM STAR 2 & LFF    
1 43760U 18099C   24287.52691854  .00176836  00000+0  31643-2 0  9999
2 43760  97.4983 357.1793 0005787 217.7675 142.3171 15.49323251321380
